[{"OBJECT_NAME":"IRIDIUM 147","OBJECT_ID":"2018-047E","EPOCH":"2026-03-09T16:30:46.128960","MEAN_MOTION":14.34216716,"ECCENTRICITY":0.00022292,"INCLINATION":86.3976,"RA_OF_ASC_NODE":129.9478,"ARG_OF_PERICENTER":99.0413,"MEAN_ANOMALY":261.1036,"EPHEMERIS_TYPE":0,"CLASSIFICATION_TYPE":"U","NORAD_CAT_ID":43480,"ELEMENT_SET_NO":999,"REV_AT_EPOCH":40822,"BSTAR":8.9014334e-5,"MEAN_MOTION_DOT":2.69e-6,"MEAN_MOTION_DDOT":0},{"OBJECT_NAME":"YUNHAI-1 02","OBJECT_ID":"2019-063A","EPOCH":"2026-03-09T23:04:05.569248","MEAN_MOTION":14.32707277,"ECCENTRICITY":0.00067235,"INCLINATION":98.4179,"RA_OF_ASC_NODE":82.2649,"ARG_OF_PERICENTER":91.6948,"MEAN_ANOMALY":268.5007,"EPHEMERIS_TYPE":0,"CLASSIFICATION_TYPE":"U","NORAD_CAT_ID":44547,"ELEMENT_SET_NO":999,"REV_AT_EPOCH":33766,"BSTAR":0.00012714191,"MEAN_MOTION_DOT":3.04e-6,"MEAN_MOTION_DDOT":0}]
